*******************************************************************************
JPL/HORIZONS               241 Germania (A884 RA)          2023-Sep-04 11:05:12
Rec #:     241 (+COV) Soln.date: 2023-Aug-22_20:56:32   # obs: 4305 (1884-2023)
 
IAU76/J2000 helio. ecliptic osc. elements (au, days, deg., period=Julian yrs):
 
  EPOCH=  2457456.5 ! 2016-Mar-09.00 (TDB)         Residual RMS= .27446
   EC= .1020475800181932   QR= 2.737477727408434   TP= 2458043.6354432832
   OM= 270.3631849835002   W=  80.63803394268004   IN= 5.504663717541495
   A= 3.048577704667133    MA= 251.2832482185681   ADIST= 3.359677681925833
   PER= 5.32297            N= .185164689           ANGMOM= .029878371
   DAN= 2.96757            DDN= 3.06776            L= 350.9586183
   B= 5.4311217            MOID= 1.73598003        TP= 2017-Oct-17.1354432832
 
Asteroid physical parameters (km, seconds, rotational period in hours):
   GM= n.a.                RAD= 84.45              ROTPER= 15.51
   H= 7.84                 G= .150                 B-V= .689
                           ALBEDO= .0575           STYP= B

ASTEROID comments: 
1: soln ref.= JPL#130, OCC=0
2: source=ORB
*******************************************************************************


*******************************************************************************
Ephemeris / API_USER Mon Sep  4 11:05:12 2023 Pasadena, USA      / Horizons
*******************************************************************************
Target body name: 241 Germania (A884 RA)          {source: JPL#130}
Center body name: Solar System Barycenter (0)     {source: DE441}
Center-site name: BODY CENTER
*******************************************************************************
Start time      : A.D. 2023-Aug-12 00:00:00.0000 TDB
Stop  time      : A.D. 2023-Aug-13 00:00:00.0000 TDB
Step-size       : 2880 minutes
*******************************************************************************
Center geodetic : 0.0, 0.0, 0.0                   {E-lon(deg),Lat(deg),Alt(km)}
Center cylindric: 0.0, 0.0, 0.0                   {E-lon(deg),Dxy(km),Dz(km)}
Center radii    : (undefined)
Small perturbers: Yes                             {source: SB441-N16}
Output units    : KM-S
Calendar mode   : Mixed Julian/Gregorian
Output type     : GEOMETRIC cartesian states
Output format   : 2 (position and velocity)
Reference frame : Ecliptic of J2000.0
*******************************************************************************
Initial IAU76/J2000 heliocentric ecliptic osculating elements (au, days, deg.):
  EPOCH=  2457456.5 ! 2016-Mar-09.00 (TDB)         Residual RMS= .27446        
   EC= .1020475800181932   QR= 2.737477727408434   TP= 2458043.6354432832      
   OM= 270.3631849835002   W=  80.63803394268004   IN= 5.504663717541495       
  Equivalent ICRF heliocentric cartesian coordinates (au, au/d):
   X=-1.958661397922883E+00  Y=-2.210765800248973E+00  Z=-1.165874827480076E+00
  VX= 7.894571717766708E-03 VY=-5.016781341425667E-03 VZ=-1.349243292307155E-03
Asteroid physical parameters (km, seconds, rotational period in hours):        
   GM= n.a.                RAD= 84.45              ROTPER= 15.51               
   H= 7.84                 G= .150                 B-V= .689                   
                           ALBEDO= .0575           STYP= B                     
*******************************************************************************
JDTDB
   X     Y     Z
   VX    VY    VZ
*******************************************************************************
$$SOE
2460168.500000000 = A.D. 2023-Aug-12 00:00:00.0000 TDB 
 X = 3.526646098740164E+08 Y = 2.201812355845509E+08 Z = 3.422364855250981E+07
 VX=-8.690609150635865E+00 VY= 1.633955948753957E+01 VZ=-8.326352443588485E-01
$$EOE
*******************************************************************************
 
TIME

  Barycentric Dynamical Time ("TDB" or T_eph) output was requested. This
continuous coordinate time is equivalent to the relativistic proper time
of a clock at rest in a reference frame co-moving with the solar system
barycenter but outside the system's gravity well. It is the independent
variable in the solar system relativistic equations of motion.

  TDB runs at a uniform rate of one SI second per second and is independent
of irregularities in Earth's rotation.
 
CALENDAR SYSTEM

  Mixed calendar mode was active such that calendar dates after AD 1582-Oct-15
(if any) are in the modern Gregorian system. Dates prior to 1582-Oct-5 (if any)
are in the Julian calendar system, which is automatically extended for dates
prior to its adoption on 45-Jan-1 BC.  The Julian calendar is useful for
matching historical dates. The Gregorian calendar more accurately corresponds
to the Earth's orbital motion and seasons. A "Gregorian-only" calendar mode is
available if such physical events are the primary interest.

REFERENCE FRAME AND COORDINATES

  Ecliptic at the standard reference epoch

    Reference epoch: J2000.0
    X-Y plane: adopted Earth orbital plane at the reference epoch
               Note: IAU76 obliquity of 84381.448 arcseconds wrt ICRF X-Y plane
    X-axis   : ICRF
    Z-axis   : perpendicular to the X-Y plane in the directional (+ or -) sense
               of Earth's north pole at the reference epoch.

  Symbol meaning:

    JDTDB    Julian Day Number, Barycentric Dynamical Time
      X      X-component of position vector (km)
      Y      Y-component of position vector (km)
      Z      Z-component of position vector (km)
      VX     X-component of velocity vector (km/sec)                           
      VY     Y-component of velocity vector (km/sec)                           
      VZ     Z-component of velocity vector (km/sec)                           

ABERRATIONS AND CORRECTIONS

 Geometric state vectors have NO corrections or aberrations applied.

Computations by ...

    Solar System Dynamics Group, Horizons On-Line Ephemeris System
    4800 Oak Grove Drive, Jet Propulsion Laboratory
    Pasadena, CA  91109   USA

    General site: https://ssd.jpl.nasa.gov/
    Mailing list: https://ssd.jpl.nasa.gov/email_list.html
    System news : https://ssd.jpl.nasa.gov/horizons/news.html
    User Guide  : https://ssd.jpl.nasa.gov/horizons/manual.html
    Connect     : browser        https://ssd.jpl.nasa.gov/horizons/app.html#/x
                  API            https://ssd-api.jpl.nasa.gov/doc/horizons.html
                  command-line   telnet ssd.jpl.nasa.gov 6775
                  e-mail/batch   https://ssd.jpl.nasa.gov/ftp/ssd/hrzn_batch.txt
                  scripts        https://ssd.jpl.nasa.gov/ftp/ssd/SCRIPTS
    Author      : Jon.D.Giorgini@jpl.nasa.gov
*******************************************************************************
